{
  "type": "FeatureCollection",
  "features": [
    {
      "type": "Feature",
      "properties": {
        "norad_id": 64694,
        "name": "GOSAT-GW (IBUKI GW)",
        "group": "resource",
        "lat": 54.887643720740435,
        "lon": -80.92872443586491,
        "alt_km": 662.7245671434057,
        "timestamp": "2025-12-21T07:34:34.198455+00:00",
        "meta_object_name": "GOSAT-GW (IBUKI GW)",
        "meta_object_id": "2025-141A",
        "meta_epoch": "2025-12-20T21:30:18.764064",
        "meta_mean_motion": 14.67566156,
        "meta_eccentricity": 0.00014552,
        "meta_inclination": 98.0435,
        "meta_ra_of_asc_node": 290.2613,
        "meta_arg_of_pericenter": 83.9366,
        "meta_mean_anomaly": 276.2005,
        "meta_ephemeris_type": 0,
        "meta_classification_type": "U",
        "meta_norad_cat_id": 64694,
        "meta_element_set_no": 999,
        "meta_rev_at_epoch": 2569,
        "meta_bstar": 0.00010398683,
        "meta_mean_motion_dot": 5.42e-06,
        "meta_mean_motion_ddot": 0,
        "tle_line1": "1 64694U 25141A   25354.89605051  .00000542  00000+0  10399-3 0  9990",
        "tle_line2": "2 64694  98.0435 290.2613 0001455  83.9366 276.2005 14.67566156 25694"
      },
      "geometry": {
        "type": "Point",
        "coordinates": [
          -80.92872443586491,
          54.887643720740435
        ]
      }
    },
    {
      "type": "Feature",
      "properties": {
        "norad_id": 64876,
        "name": "IONOSFERA-M 3",
        "group": "resource",
        "lat": 74.1778515111446,
        "lon": -75.2493249594841,
        "alt_km": 812.139068960706,
        "timestamp": "2025-12-21T07:34:34.198464+00:00",
        "meta_object_name": "IONOSFERA-M 3",
        "meta_object_id": "2025-155A",
        "meta_epoch": "2025-12-20T22:46:12.313632",
        "meta_mean_motion": 14.21442874,
        "meta_eccentricity": 0.00019984,
        "meta_inclination": 98.5794,
        "meta_ra_of_asc_node": 316.5829,
        "meta_arg_of_pericenter": 46.7656,
        "meta_mean_anomaly": 313.3688,
        "meta_ephemeris_type": 0,
        "meta_classification_type": "U",
        "meta_norad_cat_id": 64876,
        "meta_element_set_no": 999,
        "meta_rev_at_epoch": 2108,
        "meta_bstar": 3.8868078e-05,
        "meta_mean_motion_dot": 4.2e-07,
        "meta_mean_motion_ddot": 0,
        "tle_line1": "1 64876U 25155A   25354.94875363  .00000042  00000+0  38868-4 0  9995",
        "tle_line2": "2 64876  98.5794 316.5829 0001998  46.7656 313.3688 14.21442874 21080"
      },
      "geometry": {
        "type": "Point",
        "coordinates": [
          -75.2493249594841,
          74.1778515111446
        ]
      }
    },
    {
      "type": "Feature",
      "properties": {
        "norad_id": 64877,
        "name": "IONOSFERA-M 4",
        "group": "resource",
        "lat": -74.78071250939344,
        "lon": 103.15566948444129,
        "alt_km": 828.7011780831826,
        "timestamp": "2025-12-21T07:34:34.198473+00:00",
        "meta_object_name": "IONOSFERA-M 4",
        "meta_object_id": "2025-155B",
        "meta_epoch": "2025-12-20T21:55:19.710912",
        "meta_mean_motion": 14.21443981,
        "meta_eccentricity": 0.00014027,
        "meta_inclination": 98.5792,
        "meta_ra_of_asc_node": 316.4679,
        "meta_arg_of_pericenter": 55.4709,
        "meta_mean_anomaly": 304.6601,
        "meta_ephemeris_type": 0,
        "meta_classification_type": "U",
        "meta_norad_cat_id": 64877,
        "meta_element_set_no": 999,
        "meta_rev_at_epoch": 2107,
        "meta_bstar": 3.558098e-05,
        "meta_mean_motion_dot": 3.5e-07,
        "meta_mean_motion_ddot": 0,
        "tle_line1": "1 64877U 25155B   25354.91342258  .00000035  00000+0  35581-4 0  9996",
        "tle_line2": "2 64877  98.5792 316.4679 0001402  55.4709 304.6601 14.21443981 21074"
      },
      "geometry": {
        "type": "Point",
        "coordinates": [
          103.15566948444129,
          -74.78071250939344
        ]
      }
    },
    {
      "type": "Feature",
      "properties": {
        "norad_id": 64899,
        "name": "MICROCARB",
        "group": "resource",
        "lat": 7.4157903076223715,
        "lon": -108.42764104616953,
        "alt_km": 649.1083689149827,
        "timestamp": "2025-12-21T07:34:34.198482+00:00",
        "meta_object_name": "MICROCARB",
        "meta_object_id": "2025-156A",
        "meta_epoch": "2025-12-20T22:38:25.178208",
        "meta_mean_motion": 14.72069142,
        "meta_eccentricity": 0.00175331,
        "meta_inclination": 98.0017,
        "meta_ra_of_asc_node": 70.157,
        "meta_arg_of_pericenter": 120.0864,
        "meta_mean_anomaly": 240.2085,
        "meta_ephemeris_type": 0,
        "meta_classification_type": "U",
        "meta_norad_cat_id": 64899,
        "meta_element_set_no": 999,
        "meta_rev_at_epoch": 2174,
        "meta_bstar": 8.5365233e-05,
        "meta_mean_motion_dot": 4.88e-06,
        "meta_mean_motion_ddot": 0,
        "tle_line1": "1 64899U 25156A   25354.94334697  .00000488  00000+0  85365-4 0  9999",
        "tle_line2": "2 64899  98.0017  70.1570 0017533 120.0864 240.2085 14.72069142 21744"
      },
      "geometry": {
        "type": "Point",
        "coordinates": [
          -108.42764104616953,
          7.4157903076223715
        ]
      }
    },
    {
      "type": "Feature",
      "properties": {
        "norad_id": 64900,
        "name": "CO3D 3",
        "group": "resource",
        "lat": -75.37496755907544,
        "lon": -138.46657698476875,
        "alt_km": 513.4783852835062,
        "timestamp": "2025-12-21T07:34:34.198491+00:00",
        "meta_object_name": "CO3D 3",
        "meta_object_id": "2025-156B",
        "meta_epoch": "2025-12-20T22:32:55.709952",
        "meta_mean_motion": 15.20206053,
        "meta_eccentricity": 0.00013463,
        "meta_inclination": 97.4344,
        "meta_ra_of_asc_node": 71.1894,
        "meta_arg_of_pericenter": 79.6025,
        "meta_mean_anomaly": 280.5362,
        "meta_ephemeris_type": 0,
        "meta_classification_type": "U",
        "meta_norad_cat_id": 64900,
        "meta_element_set_no": 999,
        "meta_rev_at_epoch": 2245,
        "meta_bstar": 0.00017978818,
        "meta_mean_motion_dot": 3.827e-05,
        "meta_mean_motion_ddot": 0,
        "tle_line1": "1 64900U 25156B   25354.93953368  .00003827  00000+0  17979-3 0  9998",
        "tle_line2": "2 64900  97.4344  71.1894 0001346  79.6025 280.5362 15.20206053 22458"
      },
      "geometry": {
        "type": "Point",
        "coordinates": [
          -138.46657698476875,
          -75.37496755907544
        ]
      }
    },
    {
      "type": "Feature",
      "properties": {
        "norad_id": 64901,
        "name": "CO3D 4",
        "group": "resource",
        "lat": -74.63775661241206,
        "lon": -136.81742892964198,
        "alt_km": 512.5762428381113,
        "timestamp": "2025-12-21T07:34:34.198500+00:00",
        "meta_object_name": "CO3D 4",
        "meta_object_id": "2025-156C",
        "meta_epoch": "2025-12-20T22:33:09.019872",
        "meta_mean_motion": 15.20196689,
        "meta_eccentricity": 0.00012337,
        "meta_inclination": 97.4343,
        "meta_ra_of_asc_node": 71.1896,
        "meta_arg_of_pericenter": 167.763,
        "meta_mean_anomaly": 192.3635,
        "meta_ephemeris_type": 0,
        "meta_classification_type": "U",
        "meta_norad_cat_id": 64901,
        "meta_element_set_no": 999,
        "meta_rev_at_epoch": 2245,
        "meta_bstar": 0.00016645358,
        "meta_mean_motion_dot": 3.537e-05,
        "meta_mean_motion_ddot": 0,
        "tle_line1": "1 64901U 25156C   25354.93968773  .00003537  00000+0  16645-3 0  9992",
        "tle_line2": "2 64901  97.4343  71.1896 0001233 167.7630 192.3635 15.20196689 22452"
      },
      "geometry": {
        "type": "Point",
        "coordinates": [
          -136.81742892964198,
          -74.63775661241206
        ]
      }
    },
    {
      "type": "Feature",
      "properties": {
        "norad_id": 64902,
        "name": "CO3D 2",
        "group": "resource",
        "lat": 76.67995683649261,
        "lon": 37.987320493890024,
        "alt_km": 497.4280228334055,
        "timestamp": "2025-12-21T07:34:34.198509+00:00",
        "meta_object_name": "CO3D 2",
        "meta_object_id": "2025-156D",
        "meta_epoch": "2025-12-20T21:45:07.205760",
        "meta_mean_motion": 15.20216157,
        "meta_eccentricity": 7.325e-05,
        "meta_inclination": 97.4344,
        "meta_ra_of_asc_node": 71.0556,
        "meta_arg_of_pericenter": 72.6815,
        "meta_mean_anomaly": 287.4501,
        "meta_ephemeris_type": 0,
        "meta_classification_type": "U",
        "meta_norad_cat_id": 64902,
        "meta_element_set_no": 999,
        "meta_rev_at_epoch": 2244,
        "meta_bstar": 0.0008342963,
        "meta_mean_motion_dot": 0.00018044,
        "meta_mean_motion_ddot": 0,
        "tle_line1": "1 64902U 25156D   25354.90633340  .00018044  00000+0  83430-3 0  9994",
        "tle_line2": "2 64902  97.4344  71.0556 0000732  72.6815 287.4501 15.20216157 22448"
      },
      "geometry": {
        "type": "Point",
        "coordinates": [
          37.987320493890024,
          76.67995683649261
        ]
      }
    }
  ]
}